NORAD_CAT_ID,OBJECT_NAME,OBJECT_TYPE,EPOCH,MEAN_MOTION,ECCENTRICITY,INCLINATION,RA_OF_ASC_NODE,ARG_OF_PERICENTER,MEAN_ANOMALY,BSTAR,MEAN_MOTION_DOT,MEAN_MOTION_DDOT,TLE_LINE0,TLE_LINE1,TLE_LINE2,SEMIMAJOR_AXIS,PERIOD,APOGEE,PERIGEE,DECAYED
52364.0,STARLINK-3820,PAYLOAD,2024-05-11 11:14:20,15.08908163,0.0001369,53.2161,304.3033,73.9073,286.207,0.0017541,0.00027791,0.0,0 STARLINK-3820,1 52364U 22045AK  24132.46829820  .00027791  00000-0  17541-2 0  9990,2 52364  53.2161 304.3033 0001369  73.9073 286.2070 15.08908163115197,6917.672,95.433,540.484,538.59,0.0
52364.0,STARLINK-3820,PAYLOAD,2024-05-11 20:46:40,15.08802659,8.57e-05,53.2161,302.5199,84.4691,275.6398,-0.0031715,-0.00050357,0.0,0 STARLINK-3820,1 52364U 22045AK  24132.86575078 -.00050357  00000-0 -31715-2 0  9992,2 52364  53.2161 302.5199 0000857  84.4691 275.6398 15.08802659115259,6917.995,95.44,540.452,539.267,0.0
52364.0,STARLINK-3820,PAYLOAD,2024-05-12 04:43:37,15.08807423,2.89e-05,53.2163,301.0333,58.3237,301.7784,0.00051452,7.903e-05,0.0,0 STARLINK-3820,1 52364U 22045AK  24133.19695776  .00007903  00000-0  51452-3 0  9995,2 52364  53.2163 301.0333 0000289  58.3237 301.7784 15.08807423115300,6917.98,95.44,540.045,539.645,0.0
52364.0,STARLINK-3820,PAYLOAD,2024-05-12 11:05:10,15.08805282,8.49e-05,53.2164,299.8437,82.1424,277.9665,0.0016427,0.00025927,0.0,0 STARLINK-3820,1 52364U 22045AK  24133.46192973  .00025927  00000-0  16427-2 0  9994,2 52364  53.2164 299.8437 0000849  82.1424 277.9665 15.08805282115342,6917.987,95.44,540.439,539.264,0.0
52364.0,STARLINK-3820,PAYLOAD,2024-05-12 17:26:43,15.08816422,8.15e-05,53.2168,298.6531,94.3019,265.8066,0.0016485,0.00026028,0.0,0 STARLINK-3820,1 52364U 22045AK  24133.72689504  .00026028  00000-0  16485-2 0  9991,2 52364  53.2168 298.6531 0000815  94.3019 265.8066 15.08816422115389,6917.952,95.439,540.381,539.254,0.0
52364.0,STARLINK-3820,PAYLOAD,2024-05-13 04:34:26,15.08823773,5.91e-05,53.2168,296.573,80.5368,279.5691,0.00089017,0.00013901,0.0,0 STARLINK-3820,1 52364U 22045AK  24134.19058128  .00013901  00000-0  89017-3 0  9993,2 52364  53.2168 296.5730 0000591  80.5368 279.5691 15.08823773115453,6917.93,95.439,540.204,539.386,0.0
52364.0,STARLINK-3820,PAYLOAD,2024-05-13 10:55:58,15.0884155,5.34e-05,53.2159,295.385,54.3621,305.7421,0.0012979,0.00020429,0.0,0 STARLINK-3820,1 52364U 22045AK  24134.45554116  .00020429  00000-0  12979-2 0  9995,2 52364  53.2159 295.3850 0000534  54.3621 305.7421 15.08841550115491,6917.876,95.437,540.11,539.371,0.0
52364.0,STARLINK-3820,PAYLOAD,2024-05-13 17:17:31,15.08856003,5.52e-05,53.2168,294.1948,63.2772,296.8276,0.0013444,0.00021182,0.0,0 STARLINK-3820,1 52364U 22045AK  24134.72049824  .00021182  00000-0  13444-2 0  9995,2 52364  53.2168 294.1948 0000552  63.2772 296.8276 15.08856003115534,6917.831,95.437,540.078,539.315,0.0
52364.0,STARLINK-3820,PAYLOAD,2024-05-14 17:08:17,15.08866641,5.54e-05,53.2157,289.7348,51.797,308.3072,0.00072126,0.00011218,0.0,0 STARLINK-3820,1 52364U 22045AK  24135.71408632  .00011218  00000-0  72126-3 0  9993,2 52364  53.2157 289.7348 0000554  51.7970 308.3072 15.08866641115688,6917.799,95.436,540.047,539.281,0.0
52364.0,STARLINK-3820,PAYLOAD,2024-05-15 10:37:30,15.0883983,0.0001371,53.2179,286.4619,76.2261,283.8883,-0.00040191,-6.679e-05,0.0,0 STARLINK-3820,1 52364U 22045AK  24136.44271947 -.00006679  00000-0 -40191-3 0  9995,2 52364  53.2179 286.4619 0001371  76.2261 283.8883 15.08839830115799,6917.881,95.438,540.694,538.797,0.0
52364.0,STARLINK-3820,PAYLOAD,2024-05-15 13:48:17,15.08839081,9.6e-05,53.2168,285.8672,115.3949,244.7142,-0.0003653,-6.097e-05,0.0,0 STARLINK-3820,1 52364U 22045AK  24136.57519812 -.00006097  00000-0 -36530-3 0  9991,2 52364  53.2168 285.8672 0000960 115.3949 244.7142 15.08839081115815,6917.883,95.438,540.412,539.084,0.0
52364.0,STARLINK-3820,PAYLOAD,2024-05-15 16:59:03,15.08847121,1.27e-05,53.2163,285.2729,40.6942,319.406,-0.0001815,-3.175e-05,0.0,0 STARLINK-3820,1 52364U 22045AK  24136.70768071 -.00003175  00000-0 -18150-3 0  9991,2 52364  53.2163 285.2729 0000127  40.6942 319.4060 15.08847121115830,6917.859,95.437,539.811,539.636,0.0
52364.0,STARLINK-3820,PAYLOAD,2024-05-16 02:31:21,15.08862693,7.57e-05,53.2179,283.4896,95.8931,264.2148,0.00050549,7.771e-05,0.0,0 STARLINK-3820,1 52364U 22045AK  24137.10511334  .00007771  00000-0  50549-3 0  9996,2 52364  53.2179 283.4896 0000757  95.8931 264.2148 15.08862693115892,6917.811,95.436,540.2,539.152,0.0
52364.0,STARLINK-3820,PAYLOAD,2024-05-16 10:28:18,15.08826802,5.48e-05,53.2173,282.0012,111.7348,248.3702,-0.00038952,-6.479e-05,0.0,0 STARLINK-3820,1 52364U 22045AK  24137.43632119 -.00006479  00000-0 -38952-3 0  9997,2 52364  53.2173 282.0012 0000548 111.7348 248.3702 15.08826802115946,6917.921,95.438,540.165,539.407,0.0
52364.0,STARLINK-3820,PAYLOAD,2024-05-16 16:49:50,15.08850543,2.98e-05,53.2168,280.8112,329.8919,30.2056,0.00063074,9.768e-05,0.0,0 STARLINK-3820,1 52364U 22045AK  24137.70127839  .00009768  00000-0  63074-3 0  9990,2 52364  53.2168 280.8112 0000298 329.8919  30.2056 15.08850543115988,6917.848,95.437,539.919,539.507,0.0
52364.0,STARLINK-3820,PAYLOAD,2024-05-17 02:22:08,15.08863804,3.12e-05,53.2169,279.0263,62.2736,297.8288,0.0010429,0.0001636,0.0,0 STARLINK-3820,1 52364U 22045AK  24138.09871425  .00016360  00000-0  10429-2 0  9991,2 52364  53.2169 279.0263 0000312  62.2736 297.8288 15.08863804116048,6917.808,95.436,539.888,539.457,0.0
52364.0,STARLINK-3820,PAYLOAD,2024-05-17 18:16:02,15.08803752,0.0001539,53.2161,276.0525,85.1436,274.9732,-0.00038706,-6.437e-05,0.0,0 STARLINK-3820,1 52364U 22045AK  24138.76113929 -.00006437  00000-0 -38706-3 0  9998,2 52364  53.2161 276.0525 0001539  85.1436 274.9732 15.08803752116148,6917.991,95.44,540.921,538.792,0.0
52364.0,STARLINK-3820,PAYLOAD,2024-05-18 02:12:58,15.08831835,8.22e-05,53.2171,274.5664,102.4229,257.6855,0.0010999,0.00017256,0.0,0 STARLINK-3820,1 52364U 22045AK  24139.09233942  .00017256  00000-0  10999-2 0  9995,2 52364  53.2171 274.5664 0000822 102.4229 257.6855 15.08831835116195,6917.905,95.438,540.339,539.202,0.0
52364.0,STARLINK-3820,PAYLOAD,2024-05-18 13:20:39,15.08869577,0.0001295,53.214,272.4875,70.929,289.1842,0.0018491,0.00029287,0.0,0 STARLINK-3820,1 52364U 22045AK  24139.55601488  .00029287  00000-0  18491-2 0  9992,2 52364  53.2140 272.4875 0001295  70.9290 289.1842 15.08869577116262,6917.79,95.436,540.551,538.759,0.0
52364.0,STARLINK-3820,PAYLOAD,2024-05-18 14:56:02,15.088792,6.87e-05,53.2123,272.1898,84.9294,275.1777,0.0017458,0.00027636,0.0,0 STARLINK-3820,1 52364U 22045AK  24139.62224959  .00027636  00000-0  17458-2 0  9992,2 52364  53.2123 272.1898 0000687  84.9294 275.1777 15.08879200116275,6917.761,95.435,540.101,539.15,0.0
52364.0,STARLINK-3820,PAYLOAD,2024-05-18 16:31:25,15.0889476,9.53e-05,53.2158,271.8903,109.1028,251.0067,0.0024161,0.00038432,0.0,0 STARLINK-3820,1 52364U 22045AK  24139.68848635  .00038432  00000-0  24161-2 0  9996,2 52364  53.2158 271.8903 0000953 109.1028 251.0067 15.08894760116281,6917.713,95.434,540.237,538.919,0.0
52364.0,STARLINK-3820,PAYLOAD,2024-05-19 13:11:24,15.08837867,8.67e-05,53.2148,268.0259,126.5341,233.5731,0.00086861,0.00013562,0.0,0 STARLINK-3820,1 52364U 22045AK  24140.54959442  .00013562  00000-0  86861-3 0  9995,2 52364  53.2148 268.0259 0000867 126.5341 233.5731 15.08837867116410,6917.887,95.438,540.352,539.152,0.0
52364.0,STARLINK-3820,PAYLOAD,2024-05-20 13:02:12,15.08833584,8.3e-05,53.2155,263.5647,46.7212,313.3849,0.00088959,0.00013896,0.0,0 STARLINK-3820,1 52364U 22045AK  24141.54320595  .00013896  00000-0  88959-3 0  9997,2 52364  53.2155 263.5647 0000830  46.7212 313.3849 15.08833584116564,6917.9,95.438,540.339,539.191,0.0
52364.0,STARLINK-3820,PAYLOAD,2024-05-20 14:37:36,15.08830009,0.0001093,53.2167,263.2657,106.7065,253.4047,0.0009999,0.00015657,0.0,0 STARLINK-3820,1 52364U 22045AK  24141.60944536  .00015657  00000-0  99990-3 0  9995,2 52364  53.2167 263.2657 0001093 106.7065 253.4047 15.08830009116574,6917.911,95.438,540.532,539.02,0.0
52364.0,STARLINK-3820,PAYLOAD,2024-05-21 12:53:00,15.08824603,0.0001411,53.2179,259.1008,129.9625,230.1491,0.00021437,3.124e-05,0.0,0 STARLINK-3820,1 52364U 22045AK  24142.53681473  .00003124  00000-0  21437-3 0  9993,2 52364  53.2179 259.1008 0001411 129.9625 230.1491 15.08824603116718,6917.927,95.439,540.769,538.816,0.0
52364.0,STARLINK-3820,PAYLOAD,2024-05-21 14:28:23,15.08827922,0.0001398,53.2178,258.8034,129.5466,230.565,8.6298e-05,1.085e-05,0.0,0 STARLINK-3820,1 52364U 22045AK  24142.60305322  .00001085  00000-0  86298-4 0  9998,2 52364  53.2178 258.8034 0001398 129.5466 230.5650 15.08827922116724,6917.917,95.438,540.749,538.815,0.0
52364.0,STARLINK-3820,PAYLOAD,2024-05-22 11:08:24,15.08835991,0.0001101,53.2167,254.9381,117.4574,242.653,0.00016751,2.379e-05,0.0,0 STARLINK-3820,1 52364U 22045AK  24143.46417468  .00002379  00000-0  16751-3 0  9991,2 52364  53.2167 254.9381 0001101 117.4574 242.6530 15.08835991116852,6917.893,95.438,540.519,538.996,0.0
52364.0,STARLINK-3820,PAYLOAD,2024-05-23 12:34:35,15.08830938,0.0001248,53.2165,250.1772,109.6443,250.4684,2.6224e-05,1.29e-06,0.0,0 STARLINK-3820,1 52364U 22045AK  24144.52401880  .00000129  00000-0  26224-4 0  9998,2 52364  53.2165 250.1772 0001248 109.6443 250.4684 15.08830938117014,6917.908,95.438,540.636,538.91,0.0
52364.0,STARLINK-3820,PAYLOAD,2024-05-24 12:25:21,15.08846978,0.0001879,53.2166,245.7217,135.4622,224.6522,-7.1666e-05,-1.429e-05,0.0,0 STARLINK-3820,1 52364U 22045AK  24145.51761187 -.00001429  00000-0 -71666-4 0  9993,2 52364  53.2166 245.7217 0001879 135.4622 224.6522 15.08846978117166,6917.859,95.437,541.024,538.424,0.0
52364.0,STARLINK-3820,PAYLOAD,2024-05-24 14:00:44,15.08856634,0.000118,53.216,245.4238,113.2705,246.8411,-0.00023154,-3.973e-05,0.0,0 STARLINK-3820,1 52364U 22045AK  24145.58384763 -.00003973  00000-0 -23154-3 0  9995,2 52364  53.2160 245.4238 0001180 113.2705 246.8411 15.08856634117175,6917.83,95.437,540.511,538.878,0.0
